[{"OBJECT_NAME":"ONEWEB-0645","OBJECT_ID":"2023-029P","EPOCH":"2026-03-09T17:16:31.500192","MEAN_MOTION":13.1972543,"ECCENTRICITY":0.00016884,"INCLINATION":87.9228,"RA_OF_ASC_NODE":324.7967,"ARG_OF_PERICENTER":97.8792,"MEAN_ANOMALY":262.2532,"EPHEMERIS_TYPE":0,"CLASSIFICATION_TYPE":"U","NORAD_CAT_ID":55809,"ELEMENT_SET_NO":999,"REV_AT_EPOCH":14578,"BSTAR":1.1441113e-5,"MEAN_MOTION_DOT":1.8e-7,"MEAN_MOTION_DDOT":0},{"OBJECT_NAME":"DELTA 1 DEB","OBJECT_ID":"1975-052JZ","EPOCH":"2026-03-09T05:01:36.753024","MEAN_MOTION":12.8990688,"ECCENTRICITY":0.03203609,"INCLINATION":99.9243,"RA_OF_ASC_NODE":169.0974,"ARG_OF_PERICENTER":326.6363,"MEAN_ANOMALY":94.9528,"EPHEMERIS_TYPE":0,"CLASSIFICATION_TYPE":"U","NORAD_CAT_ID":23310,"ELEMENT_SET_NO":999,"REV_AT_EPOCH":57206,"BSTAR":0.00087080525,"MEAN_MOTION_DOT":2.45e-6,"MEAN_MOTION_DDOT":0}]
